CTC1_L_00428001-01
1 10000U 23956TD  26075.70034722  .00000000  00000+0  00000-0 0  9990
2 10000  45.0000   0.0000 0000000   0.0000   0.0000 12.53473438    13
CTC1_L_00428001-02
1 10001U 26862ZH  26075.70034722  .00000000  00000+0  00000-0 0  9990
2 10001  45.0000   0.0000 0000000   0.0000  90.0000 12.53473438    13
CTC1_L_00428001-03
1 10002U 25559UU  26075.70034722  .00000000  00000+0  00000-0 0  9993
2 10002  45.0000   0.0000 0000000   0.0000 180.0000 12.53473438    14
CTC1_L_00428001-04
1 10003U 25750DJ  26075.70034722  .00000000  00000+0  00000-0 0  9997
2 10003  45.0000   0.0000 0000000   0.0000 270.0000 12.53473438    15
CTC1_L_00428002-01
1 10004U 25625FE  26075.70034722  .00000000  00000+0  00000-0 0  9999
2 10004  45.0000  12.0000 0000000   0.0000  12.0000 12.53473438    13
CTC1_L_00428002-02
1 10005U 24520SX  26075.70034722  .00000000  00000+0  00000-0 0  9993
2 10005  45.0000  12.0000 0000000   0.0000 102.0000 12.53473438    14
CTC1_L_00428002-03
1 10006U 26998SD  26075.70034722  .00000000  00000+0  00000-0 0  9995
2 10006  45.0000  12.0000 0000000   0.0000 192.0000 12.53473438    14
CTC1_L_00428002-04
1 10007U 23481TF  26075.70034722  .00000000  00000+0  00000-0 0  9990
2 10007  45.0000  12.0000 0000000   0.0000 282.0000 12.53473438    15
CTC1_L_00428003-01
1 10008U 25608HN  26075.70034722  .00000000  00000+0  00000-0 0  9994
2 10008  45.0000  24.0000 0000000   0.0000  24.0000 12.53473438    13
CTC1_L_00428003-02
1 10009U 26211DT  26075.70034722  .00000000  00000+0  00000-0 0  9996
2 10009  45.0000  24.0000 0000000   0.0000 114.0000 12.53473438    14
CTC1_L_00428003-03
1 10010U 23474HL  26075.70034722  .00000000  00000+0  00000-0 0  9996
2 10010  45.0000  24.0000 0000000   0.0000 204.0000 12.53473438    16
CTC1_L_00428003-04
1 10011U 24655AV  26075.70034722  .00000000  00000+0  00000-0 0  9999
2 10011  45.0000  24.0000 0000000   0.0000 294.0000 12.53473438    16
CTC1_L_00428004-01
1 10012U 25047OC  26075.70034722  .00000000  00000+0  00000-0 0  9996
2 10012  45.0000  36.0000 0000000   0.0000  36.0000 12.53473438    14
CTC1_L_00428004-02
1 10013U 26612PE  26075.70034722  .00000000  00000+0  00000-0 0  9996
2 10013  45.0000  36.0000 0000000   0.0000 126.0000 12.53473438    15
CTC1_L_00428004-03
1 10014U 23329RB  26075.70034722  .00000000  00000+0  00000-0 0  9999
2 10014  45.0000  36.0000 0000000   0.0000 216.0000 12.53473438    16
CTC1_L_00428004-04
1 10015U 23120RF  26075.70034722  .00000000  00000+0  00000-0 0  9999
2 10015  45.0000  36.0000 0000000   0.0000 306.0000 12.53473438    17
CTC1_L_00428005-01
1 10016U 24008TM  26075.70034722  .00000000  00000+0  00000-0 0  9996
2 10016  45.0000  48.0000 0000000   0.0000  48.0000 12.53473438    14
CTC1_L_00428005-02
1 10017U 23864QC  26075.70034722  .00000000  00000+0  00000-0 0  9996
2 10017  45.0000  48.0000 0000000   0.0000 138.0000 12.53473438    15
CTC1_L_00428005-03
1 10018U 25540YZ  26075.70034722  .00000000  00000+0  00000-0 0  9990
2 10018  45.0000  48.0000 0000000   0.0000 228.0000 12.53473438    16
CTC1_L_00428005-04
1 10019U 22166TG  26075.70034722  .00000000  00000+0  00000-0 0  9992
2 10019  45.0000  48.0000 0000000   0.0000 318.0000 12.53473438    17
CTC1_L_00428006-01
1 10020U 26041DH  26075.70034722  .00000000  00000+0  00000-0 0  9990
2 10020  45.0000  60.0000 0000000   0.0000  60.0000 12.53473438    17
CTC1_L_00428006-02
1 10021U 26647JV  26075.70034722  .00000000  00000+0  00000-0 0  9993
2 10021  45.0000  60.0000 0000000   0.0000 150.0000 12.53473438    18
CTC1_L_00428006-03
1 10022U 22173HJ  26075.70034722  .00000000  00000+0  00000-0 0  9994
2 10022  45.0000  60.0000 0000000   0.0000 240.0000 12.53473438    19
CTC1_L_00428006-04
1 10023U 25311ZM  26075.70034722  .00000000  00000+0  00000-0 0  9992
2 10023  45.0000  60.0000 0000000   0.0000 330.0000 12.53473438    10
CTC1_L_00428007-01
1 10024U 23889PL  26075.70034722  .00000000  00000+0  00000-0 0  9991
2 10024  45.0000  72.0000 0000000   0.0000  72.0000 12.53473438    17
CTC1_L_00428007-02
1 10025U 26456CI  26075.70034722  .00000000  00000+0  00000-0 0  9995
2 10025  45.0000  72.0000 0000000   0.0000 162.0000 12.53473438    18
CTC1_L_00428007-03
1 10026U 25455LQ  26075.70034722  .00000000  00000+0  00000-0 0  9994
2 10026  45.0000  72.0000 0000000   0.0000 252.0000 12.53473438    19
CTC1_L_00428007-04
1 10027U 26226YR  26075.70034722  .00000000  00000+0  00000-0 0  9992
2 10027  45.0000  72.0000 0000000   0.0000 342.0000 12.53473438    10
CTC1_L_00428008-01
1 10028U 22434QB  26075.70034722  .00000000  00000+0  00000-0 0  9990
2 10028  45.0000  84.0000 0000000   0.0000  84.0000 12.53473438    17
CTC1_L_00428008-02
1 10029U 23556CP  26075.70034722  .00000000  00000+0  00000-0 0  9997
2 10029  45.0000  84.0000 0000000   0.0000 174.0000 12.53473438    18
CTC1_L_00428008-03
1 10030U 24750IH  26075.70034722  .00000000  00000+0  00000-0 0  9996
2 10030  45.0000  84.0000 0000000   0.0000 264.0000 12.53473438    10
CTC1_L_00428008-04
1 10031U 26971ZF  26075.70034722  .00000000  00000+0  00000-0 0  9994
2 10031  45.0000  84.0000 0000000   0.0000 354.0000 12.53473438    11
CTC1_L_00428009-01
1 10032U 25383TG  26075.70034722  .00000000  00000+0  00000-0 0  9991
2 10032  45.0000  96.0000 0000000   0.0000  96.0000 12.53473438    18
CTC1_L_00428009-02
1 10033U 26998ZH  26075.70034722  .00000000  00000+0  00000-0 0  9995
2 10033  45.0000  96.0000 0000000   0.0000 186.0000 12.53473438    19
CTC1_L_00428009-03
1 10034U 22470CF  26075.70034722  .00000000  00000+0  00000-0 0  9997
2 10034  45.0000  96.0000 0000000   0.0000 276.0000 12.53473438    10
CTC1_L_00428009-04
1 10035U 24468BQ  26075.70034722  .00000000  00000+0  00000-0 0  9997
2 10035  45.0000  96.0000 0000000   0.0000   6.0000 12.53473438    12
CTC1_L_00428010-01
1 10036U 26979MY  26075.70034722  .00000000  00000+0  00000-0 0  9997
2 10036  45.0000 108.0000 0000000   0.0000 108.0000 12.53473438    10
CTC1_L_00428010-02
1 10037U 26998GY  26075.70034722  .00000000  00000+0  00000-0 0  9999
2 10037  45.0000 108.0000 0000000   0.0000 198.0000 12.53473438    10
CTC1_L_00428010-03
1 10038U 26657TB  26075.70034722  .00000000  00000+0  00000-0 0  9992
2 10038  45.0000 108.0000 0000000   0.0000 288.0000 12.53473438    11
CTC1_L_00428010-04
1 10039U 23911IN  26075.70034722  .00000000  00000+0  00000-0 0  9993
2 10039  45.0000 108.0000 0000000   0.0000  18.0000 12.53473438    13
CTC1_L_00428011-01
1 10040U 23382V   26075.70034722  .00000000  00000+0  00000-0 0  9997
2 10040  45.0000 120.0000 0000000   0.0000 120.0000 12.53473438    13
CTC1_L_00428011-02
1 10041U 24501HJ  26075.70034722  .00000000  00000+0  00000-0 0  9992
2 10041  45.0000 120.0000 0000000   0.0000 210.0000 12.53473438    14
CTC1_L_00428011-03
1 10042U 24945HK  26075.70034722  .00000000  00000+0  00000-0 0  9995
2 10042  45.0000 120.0000 0000000   0.0000 300.0000 12.53473438    15
CTC1_L_00428011-04
1 10043U 22124M   26075.70034722  .00000000  00000+0  00000-0 0  9993
2 10043  45.0000 120.0000 0000000   0.0000  30.0000 12.53473438    16
CTC1_L_00428012-01
1 10044U 26238IC  26075.70034722  .00000000  00000+0  00000-0 0  9994
2 10044  45.0000 132.0000 0000000   0.0000 132.0000 12.53473438    13
CTC1_L_00428012-02
1 10045U 24855JL  26075.70034722  .00000000  00000+0  00000-0 0  9998
2 10045  45.0000 132.0000 0000000   0.0000 222.0000 12.53473438    14
CTC1_L_00428012-03
1 10046U 24306TE  26075.70034722  .00000000  00000+0  00000-0 0  9990
2 10046  45.0000 132.0000 0000000   0.0000 312.0000 12.53473438    15
CTC1_L_00428012-04
1 10047U 22388TD  26075.70034722  .00000000  00000+0  00000-0 0  9999
2 10047  45.0000 132.0000 0000000   0.0000  42.0000 12.53473438    16
CTC1_L_00428013-01
1 10048U 25165XT  26075.70034722  .00000000  00000+0  00000-0 0  9996
2 10048  45.0000 144.0000 0000000   0.0000 144.0000 12.53473438    13
CTC1_L_00428013-02
1 10049U 24574EJ  26075.70034722  .00000000  00000+0  00000-0 0  9990
2 10049  45.0000 144.0000 0000000   0.0000 234.0000 12.53473438    14
CTC1_L_00428013-03
1 10050U 22299HR  26075.70034722  .00000000  00000+0  00000-0 0  9994
2 10050  45.0000 144.0000 0000000   0.0000 324.0000 12.53473438    16
CTC1_L_00428013-04
1 10051U 24162VB  26075.70034722  .00000000  00000+0  00000-0 0  9996
2 10051  45.0000 144.0000 0000000   0.0000  54.0000 12.53473438    17
CTC1_L_00428014-01
1 10052U 24189VG  26075.70034722  .00000000  00000+0  00000-0 0  9996
2 10052  45.0000 156.0000 0000000   0.0000 156.0000 12.53473438    14
CTC1_L_00428014-02
1 10053U 24589AY  26075.70034722  .00000000  00000+0  00000-0 0  9991
2 10053  45.0000 156.0000 0000000   0.0000 246.0000 12.53473438    15
CTC1_L_00428014-03
1 10054U 23279YO  26075.70034722  .00000000  00000+0  00000-0 0  9997
2 10054  45.0000 156.0000 0000000   0.0000 336.0000 12.53473438    16
CTC1_L_00428014-04
1 10055U 23096R   26075.70034722  .00000000  00000+0  00000-0 0  9995
2 10055  45.0000 156.0000 0000000   0.0000  66.0000 12.53473438    17
CTC1_L_00428015-01
1 10056U 22389AW  26075.70034722  .00000000  00000+0  00000-0 0  9990
2 10056  45.0000 168.0000 0000000   0.0000 168.0000 12.53473438    14
CTC1_L_00428015-02
1 10057U 26905OM  26075.70034722  .00000000  00000+0  00000-0 0  9999
2 10057  45.0000 168.0000 0000000   0.0000 258.0000 12.53473438    15
CTC1_L_00428015-03
1 10058U 23230ZP  26075.70034722  .00000000  00000+0  00000-0 0  9998
2 10058  45.0000 168.0000 0000000   0.0000 348.0000 12.53473438    16
CTC1_L_00428015-04
1 10059U 25556GM  26075.70034722  .00000000  00000+0  00000-0 0  9992
2 10059  45.0000 168.0000 0000000   0.0000  78.0000 12.53473438    17
CTC1_L_00428016-01
1 10060U 25478PN  26075.70034722  .00000000  00000+0  00000-0 0  9997
2 10060  45.0000 180.0000 0000000   0.0000 180.0000 12.53473438    17
CTC1_L_00428016-02
1 10061U 22167C   26075.70034722  .00000000  00000+0  00000-0 0  9990
2 10061  45.0000 180.0000 0000000   0.0000 270.0000 12.53473438    18
